[{"OBJECT_NAME":"STARLINK-30980","OBJECT_ID":"2023-186D","EPOCH":"2026-03-09T22:00:01.999584","MEAN_MOTION":15.20116212,"ECCENTRICITY":0.00019479,"INCLINATION":43.0001,"RA_OF_ASC_NODE":65.8317,"ARG_OF_PERICENTER":252.7855,"MEAN_ANOMALY":340.7673,"EPHEMERIS_TYPE":0,"CLASSIFICATION_TYPE":"U","NORAD_CAT_ID":58476,"ELEMENT_SET_NO":999,"REV_AT_EPOCH":577,"BSTAR":0.096460854,"MEAN_MOTION_DOT":0.02359688,"MEAN_MOTION_DDOT":0},{"OBJECT_NAME":"ZORKIY-2M-5","OBJECT_ID":"2025-313AZ","EPOCH":"2026-03-09T22:42:26.981568","MEAN_MOTION":15.22674372,"ECCENTRICITY":0.00099299,"INCLINATION":97.4004,"RA_OF_ASC_NODE":145.3305,"ARG_OF_PERICENTER":342.384,"MEAN_ANOMALY":17.7051,"EPHEMERIS_TYPE":0,"CLASSIFICATION_TYPE":"U","NORAD_CAT_ID":67295,"ELEMENT_SET_NO":999,"REV_AT_EPOCH":1086,"BSTAR":0.00041596363,"MEAN_MOTION_DOT":9.635e-5,"MEAN_MOTION_DDOT":0}]
